{
  "type": "FeatureCollection",
  "features": [
    {
      "type": "Feature",
      "properties": {
        "norad_id": 50032,
        "name": "COSMOS 1408 DEB",
        "group": "cosmos-1408-debris",
        "lat": -79.00133444987782,
        "lon": -83.07873866640075,
        "alt_km": 432.48758258240287,
        "timestamp": "2025-12-16T10:53:45.739864+00:00",
        "meta_object_name": "COSMOS 1408 DEB",
        "meta_object_id": "1982-092RU",
        "meta_epoch": "2025-12-15T04:14:48.950880",
        "meta_mean_motion": 15.45720656,
        "meta_eccentricity": 0.00154709,
        "meta_inclination": 82.5645,
        "meta_ra_of_asc_node": 56.0111,
        "meta_arg_of_pericenter": 199.3332,
        "meta_mean_anomaly": 160.7333,
        "meta_ephemeris_type": 0,
        "meta_classification_type": "U",
        "meta_norad_cat_id": 50032,
        "meta_element_set_no": 999,
        "meta_rev_at_epoch": 22641,
        "meta_bstar": 8.3312552e-05,
        "meta_mean_motion_dot": 4.083e-05,
        "meta_mean_motion_ddot": 0,
        "tle_line1": "1 50032U 82092RU  25349.17695545  .00004083  00000+0  83313-4 0  9992",
        "tle_line2": "2 50032  82.5645  56.0111 0015470 199.3332 160.7333 15.45720656226412"
      },
      "geometry": {
        "type": "Point",
        "coordinates": [
          -83.07873866640075,
          -79.00133444987782
        ]
      }
    },
    {
      "type": "Feature",
      "properties": {
        "norad_id": 50058,
        "name": "COSMOS 1408 DEB",
        "group": "cosmos-1408-debris",
        "lat": -9.652397537807353,
        "lon": 64.18962037452752,
        "alt_km": 380.56215415391034,
        "timestamp": "2025-12-16T10:53:45.739885+00:00",
        "meta_object_name": "COSMOS 1408 DEB",
        "meta_object_id": "1982-092SW",
        "meta_epoch": "2025-12-15T22:39:20.359296",
        "meta_mean_motion": 15.64302604,
        "meta_eccentricity": 0.00162647,
        "meta_inclination": 82.6133,
        "meta_ra_of_asc_node": 65.9879,
        "meta_arg_of_pericenter": 88.0199,
        "meta_mean_anomaly": 272.2922,
        "meta_ephemeris_type": 0,
        "meta_classification_type": "U",
        "meta_norad_cat_id": 50058,
        "meta_element_set_no": 999,
        "meta_rev_at_epoch": 22854,
        "meta_bstar": 0.00026335604,
        "meta_mean_motion_dot": 0.00025363,
        "meta_mean_motion_ddot": 0,
        "tle_line1": "1 50058U 82092SW  25349.94398564  .00025363  00000+0  26336-3 0  9991",
        "tle_line2": "2 50058  82.6133  65.9879 0016264  88.0199 272.2922 15.64302604228549"
      },
      "geometry": {
        "type": "Point",
        "coordinates": [
          64.18962037452752,
          -9.652397537807353
        ]
      }
    },
    {
      "type": "Feature",
      "properties": {
        "norad_id": 50404,
        "name": "COSMOS 1408 DEB",
        "group": "cosmos-1408-debris",
        "lat": 28.924315438401496,
        "lon": 26.887400019300028,
        "alt_km": 425.07340275506886,
        "timestamp": "2025-12-16T10:53:45.739898+00:00",
        "meta_object_name": "COSMOS 1408 DEB",
        "meta_object_id": "1982-092ADS",
        "meta_epoch": "2025-12-15T21:32:23.313984",
        "meta_mean_motion": 15.1429436,
        "meta_eccentricity": 0.01706647,
        "meta_inclination": 82.2037,
        "meta_ra_of_asc_node": 211.7997,
        "meta_arg_of_pericenter": 188.0391,
        "meta_mean_anomaly": 171.8103,
        "meta_ephemeris_type": 0,
        "meta_classification_type": "U",
        "meta_norad_cat_id": 50404,
        "meta_element_set_no": 999,
        "meta_rev_at_epoch": 21241,
        "meta_bstar": 0.0024072217,
        "meta_mean_motion_dot": 0.00064013,
        "meta_mean_motion_ddot": 0,
        "tle_line1": "1 50404U 82092ADS 25349.89749206  .00064013  00000+0  24072-2 0  9992",
        "tle_line2": "2 50404  82.2037 211.7997 0170664 188.0391 171.8103 15.14294360212413"
      },
      "geometry": {
        "type": "Point",
        "coordinates": [
          26.887400019300028,
          28.924315438401496
        ]
      }
    },
    {
      "type": "Feature",
      "properties": {
        "norad_id": 50621,
        "name": "COSMOS 1408 DEB",
        "group": "cosmos-1408-debris",
        "lat": -82.1930688522397,
        "lon": -37.552010034818345,
        "alt_km": 416.40240993987845,
        "timestamp": "2025-12-16T10:53:45.739910+00:00",
        "meta_object_name": "COSMOS 1408 DEB",
        "meta_object_id": "1982-092ALR",
        "meta_epoch": "2025-12-15T18:19:33.175488",
        "meta_mean_motion": 15.56826733,
        "meta_eccentricity": 0.00289654,
        "meta_inclination": 82.5705,
        "meta_ra_of_asc_node": 71.0324,
        "meta_arg_of_pericenter": 141.324,
        "meta_mean_anomaly": 219.0098,
        "meta_ephemeris_type": 0,
        "meta_classification_type": "U",
        "meta_norad_cat_id": 50621,
        "meta_element_set_no": 999,
        "meta_rev_at_epoch": 22297,
        "meta_bstar": 0.0002778382,
        "meta_mean_motion_dot": 0.00020366,
        "meta_mean_motion_ddot": 0,
        "tle_line1": "1 50621U 82092ALR 25349.76357842  .00020366  00000+0  27784-3 0  9997",
        "tle_line2": "2 50621  82.5705  71.0324 0028965 141.3240 219.0098 15.56826733222972"
      },
      "geometry": {
        "type": "Point",
        "coordinates": [
          -37.552010034818345,
          -82.1930688522397
        ]
      }
    }
  ]
}